{
  "type": "FeatureCollection",
  "features": [
    {
      "type": "Feature",
      "properties": {
        "norad_id": 33939,
        "name": "COSMOS 2251 DEB",
        "group": "cosmos-2251-debris",
        "lat": -72.71717912231183,
        "lon": -61.69355653641263,
        "alt_km": 572.0870358284301,
        "timestamp": "2025-12-27T05:29:39.597479+00:00",
        "meta_object_name": "COSMOS 2251 DEB",
        "meta_object_id": "1993-036EU",
        "meta_epoch": "2025-12-26T12:19:36.424128",
        "meta_mean_motion": 15.00846184,
        "meta_eccentricity": 0.0005256,
        "meta_inclination": 74.0064,
        "meta_ra_of_asc_node": 52.5661,
        "meta_arg_of_pericenter": 11.3538,
        "meta_mean_anomaly": 348.7767,
        "meta_ephemeris_type": 0,
        "meta_classification_type": "U",
        "meta_norad_cat_id": 33939,
        "meta_element_set_no": 999,
        "meta_rev_at_epoch": 88959,
        "meta_bstar": 0.0029211,
        "meta_mean_motion_dot": 0.0003732,
        "meta_mean_motion_ddot": 0,
        "tle_line1": "1 33939U 93036EU  25360.51361602  .00037320  00000+0  29211-2 0  9999",
        "tle_line2": "2 33939  74.0064  52.5661 0005256  11.3538 348.7767 15.00846184889592"
      },
      "geometry": {
        "type": "Point",
        "coordinates": [
          -61.69355653641263,
          -72.71717912231183
        ]
      }
    },
    {
      "type": "Feature",
      "properties": {
        "norad_id": 33940,
        "name": "COSMOS 2251 DEB",
        "group": "cosmos-2251-debris",
        "lat": 28.423144232270513,
        "lon": 124.81719607767734,
        "alt_km": 702.2794221820095,
        "timestamp": "2025-12-27T05:29:39.597490+00:00",
        "meta_object_name": "COSMOS 2251 DEB",
        "meta_object_id": "1993-036EV",
        "meta_epoch": "2025-12-26T18:32:03.681312",
        "meta_mean_motion": 14.58931988,
        "meta_eccentricity": 0.0010588,
        "meta_inclination": 74.0399,
        "meta_ra_of_asc_node": 116.7763,
        "meta_arg_of_pericenter": 197.6819,
        "meta_mean_anomaly": 314.6193,
        "meta_ephemeris_type": 0,
        "meta_classification_type": "U",
        "meta_norad_cat_id": 33940,
        "meta_element_set_no": 999,
        "meta_rev_at_epoch": 88798,
        "meta_bstar": 0.0012113808,
        "meta_mean_motion_dot": 5.659e-05,
        "meta_mean_motion_ddot": 0,
        "tle_line1": "1 33940U 93036EV  25360.77226483  .00005659  00000+0  12114-2 0  9990",
        "tle_line2": "2 33940  74.0399 116.7763 0010588 197.6819 314.6193 14.58931988887980"
      },
      "geometry": {
        "type": "Point",
        "coordinates": [
          124.81719607767734,
          28.423144232270513
        ]
      }
    },
    {
      "type": "Feature",
      "properties": {
        "norad_id": 33942,
        "name": "COSMOS 2251 DEB",
        "group": "cosmos-2251-debris",
        "lat": -37.868789599546815,
        "lon": 81.0066405636361,
        "alt_km": 776.015524063685,
        "timestamp": "2025-12-27T05:29:39.597500+00:00",
        "meta_object_name": "COSMOS 2251 DEB",
        "meta_object_id": "1993-036EX",
        "meta_epoch": "2025-12-26T17:05:25.114272",
        "meta_mean_motion": 14.38006939,
        "meta_eccentricity": 0.00208597,
        "meta_inclination": 74.0358,
        "meta_ra_of_asc_node": 249.0968,
        "meta_arg_of_pericenter": 329.8877,
        "meta_mean_anomaly": 95.4412,
        "meta_ephemeris_type": 0,
        "meta_classification_type": "U",
        "meta_norad_cat_id": 33942,
        "meta_element_set_no": 999,
        "meta_rev_at_epoch": 88335,
        "meta_bstar": 0.00019534542,
        "meta_mean_motion_dot": 5.66e-06,
        "meta_mean_motion_ddot": 0,
        "tle_line1": "1 33942U 93036EX  25360.71209623  .00000566  00000+0  19535-3 0  9990",
        "tle_line2": "2 33942  74.0358 249.0968 0020859 329.8877  95.4412 14.38006939883351"
      },
      "geometry": {
        "type": "Point",
        "coordinates": [
          81.0066405636361,
          -37.868789599546815
        ]
      }
    },
    {
      "type": "Feature",
      "properties": {
        "norad_id": 33944,
        "name": "COSMOS 2251 DEB",
        "group": "cosmos-2251-debris",
        "lat": 57.91520865705287,
        "lon": -50.57245949659016,
        "alt_km": 702.4633848282429,
        "timestamp": "2025-12-27T05:29:39.597510+00:00",
        "meta_object_name": "COSMOS 2251 DEB",
        "meta_object_id": "1993-036EZ",
        "meta_epoch": "2025-12-26T22:52:14.856672",
        "meta_mean_motion": 14.37376701,
        "meta_eccentricity": 0.0112816,
        "meta_inclination": 74.0407,
        "meta_ra_of_asc_node": 282.7768,
        "meta_arg_of_pericenter": 18.7842,
        "meta_mean_anomaly": 54.6719,
        "meta_ephemeris_type": 0,
        "meta_classification_type": "U",
        "meta_norad_cat_id": 33944,
        "meta_element_set_no": 999,
        "meta_rev_at_epoch": 88232,
        "meta_bstar": 0.00042757822,
        "meta_mean_motion_dot": 1.347e-05,
        "meta_mean_motion_ddot": 0,
        "tle_line1": "1 33944U 93036EZ  25360.95294973  .00001347  00000+0  42758-3 0  9991",
        "tle_line2": "2 33944  74.0407 282.7768 0112816  18.7842  54.6719 14.37376701882320"
      },
      "geometry": {
        "type": "Point",
        "coordinates": [
          -50.57245949659016,
          57.91520865705287
        ]
      }
    },
    {
      "type": "Feature",
      "properties": {
        "norad_id": 33945,
        "name": "COSMOS 2251 DEB",
        "group": "cosmos-2251-debris",
        "lat": 65.03449950462657,
        "lon": -42.324891655422064,
        "alt_km": 763.6573922921461,
        "timestamp": "2025-12-27T05:29:39.597520+00:00",
        "meta_object_name": "COSMOS 2251 DEB",
        "meta_object_id": "1993-036FA",
        "meta_epoch": "2025-12-26T22:28:24.444192",
        "meta_mean_motion": 14.34612225,
        "meta_eccentricity": 0.00225204,
        "meta_inclination": 74.0302,
        "meta_ra_of_asc_node": 280.2541,
        "meta_arg_of_pericenter": 2.9375,
        "meta_mean_anomaly": 357.1905,
        "meta_ephemeris_type": 0,
        "meta_classification_type": "U",
        "meta_norad_cat_id": 33945,
        "meta_element_set_no": 999,
        "meta_rev_at_epoch": 88219,
        "meta_bstar": 0.00015482879,
        "meta_mean_motion_dot": 4.13e-06,
        "meta_mean_motion_ddot": 0,
        "tle_line1": "1 33945U 93036FA  25360.93639403  .00000413  00000+0  15483-3 0  9999",
        "tle_line2": "2 33945  74.0302 280.2541 0022520   2.9375 357.1905 14.34612225882199"
      },
      "geometry": {
        "type": "Point",
        "coordinates": [
          -42.324891655422064,
          65.03449950462657
        ]
      }
    },
    {
      "type": "Feature",
      "properties": {
        "norad_id": 33948,
        "name": "COSMOS 2251 DEB",
        "group": "cosmos-2251-debris",
        "lat": -26.02952845741094,
        "lon": -89.48585450846275,
        "alt_km": 762.3386642635905,
        "timestamp": "2025-12-27T05:29:39.597531+00:00",
        "meta_object_name": "COSMOS 2251 DEB",
        "meta_object_id": "1993-036FD",
        "meta_epoch": "2025-12-26T21:15:28.818144",
        "meta_mean_motion": 14.35646042,
        "meta_eccentricity": 0.00233526,
        "meta_inclination": 74.036,
        "meta_ra_of_asc_node": 279.1796,
        "meta_arg_of_pericenter": 351.726,
        "meta_mean_anomaly": 8.3504,
        "meta_ephemeris_type": 0,
        "meta_classification_type": "U",
        "meta_norad_cat_id": 33948,
        "meta_element_set_no": 999,
        "meta_rev_at_epoch": 88226,
        "meta_bstar": 0.00022460754,
        "meta_mean_motion_dot": 6.24e-06,
        "meta_mean_motion_ddot": 0,
        "tle_line1": "1 33948U 93036FD  25360.88575021  .00000624  00000+0  22461-3 0  9999",
        "tle_line2": "2 33948  74.0360 279.1796 0023352 351.7260   8.3504 14.35646042882260"
      },
      "geometry": {
        "type": "Point",
        "coordinates": [
          -89.48585450846275,
          -26.02952845741094
        ]
      }
    },
    {
      "type": "Feature",
      "properties": {
        "norad_id": 33971,
        "name": "COSMOS 2251 DEB",
        "group": "cosmos-2251-debris",
        "lat": -67.79411640282498,
        "lon": 91.52723333763454,
        "alt_km": 761.7275391023386,
        "timestamp": "2025-12-27T05:29:39.597541+00:00",
        "meta_object_name": "COSMOS 2251 DEB",
        "meta_object_id": "1993-036FE",
        "meta_epoch": "2025-12-26T21:43:27.537312",
        "meta_mean_motion": 14.39749079,
        "meta_eccentricity": 0.00190555,
        "meta_inclination": 74.0236,
        "meta_ra_of_asc_node": 227.5534,
        "meta_arg_of_pericenter": 325.8002,
        "meta_mean_anomaly": 51.3984,
        "meta_ephemeris_type": 0,
        "meta_classification_type": "U",
        "meta_norad_cat_id": 33971,
        "meta_element_set_no": 999,
        "meta_rev_at_epoch": 88343,
        "meta_bstar": 0.000273755,
        "meta_mean_motion_dot": 8.33e-06,
        "meta_mean_motion_ddot": 0,
        "tle_line1": "1 33971U 93036FE  25360.90517983  .00000833  00000+0  27376-3 0  9993",
        "tle_line2": "2 33971  74.0236 227.5534 0019055 325.8002  51.3984 14.39749079883434"
      },
      "geometry": {
        "type": "Point",
        "coordinates": [
          91.52723333763454,
          -67.79411640282498
        ]
      }
    }
  ]
}